{"fetched_at":"2026-03-29T02:12:04Z","count":15717,"tles":[{"name":"CARTOSAT-2D","line1":"1 41948U 17008A   26086.68583299  .00000510  00000+0  27408-4 0  9994","line2":"2 41948  97.4195 147.4754 0005431 156.1008 204.0480 15.19256667505207","category":"Other"}]}